0 FENGYUN 1C DEB
1 33723U 99025DHL 13281.72821855  .00001890  00000-0  14073-2 0  3377
2 33723 099.1979 252.9388 0122678 296.6916 062.1780 13.92719799292853
0 FENGYUN 1C DEB
1 33723U 99025DHL 13285.67941847  .00001954  00000-0  14528-2 0  3386
2 33723 099.1976 256.8645 0122895 286.2608 072.5252 13.92737008293407
0 FENGYUN 1C DEB
1 33723U 99025DHL 13287.69091695  .00002002  00000-0  14874-2 0  3397
2 33723 099.1982 258.8654 0122779 280.9140 077.8286 13.92746403293683
0 FENGYUN 1C DEB
1 33723U 99025DHL 13291.13918334  .00002047  00000-0  15185-2 0  3406
2 33723 099.1968 262.2868 0123555 271.7132 087.0160 13.92762198294162
0 FENGYUN 1C DEB
1 33723U 99025DHL 13293.15065431  .00002078  00000-0  15414-2 0  3411
2 33723 099.1971 264.2863 0123387 266.2272 092.5067 13.92771696294441
0 FENGYUN 1C DEB
1 33723U 99025DHL 13295.16210927  .00002105  00000-0  15606-2 0  3421
2 33723 099.1974 266.2841 0123237 260.8167 097.9015 13.92781092294723
